{"fetched_at":"2026-03-30T06:02:59Z","count":15439,"tles":[{"name":"STARLINK-34789","line1":"1 65022U 25161H   26087.74170538  .00037460  00000+0  12702-2 0  9991","line2":"2 65022  53.1582 205.9327 0001151  70.7301 289.3825 15.30208250 38234","category":"Starlink"}]}